NORAD_CAT_ID,OBJECT_NAME,OBJECT_TYPE,EPOCH,MEAN_MOTION,ECCENTRICITY,INCLINATION,RA_OF_ASC_NODE,ARG_OF_PERICENTER,MEAN_ANOMALY,BSTAR,MEAN_MOTION_DOT,MEAN_MOTION_DDOT,TLE_LINE0,TLE_LINE1,TLE_LINE2,SEMIMAJOR_AXIS,PERIOD,APOGEE,PERIGEE,DECAYED
53716.0,STARLINK-4699,PAYLOAD,2024-01-25 13:52:56,15.08843672,0.0001563,53.2181,128.9233,110.5681,249.5479,7.6774e-07,-2.76e-06,0.0,0 STARLINK-4699,1 53716U 22107S   24025.57842960 -.00000276  00000-0  76774-6 0  9991,2 53716  53.2181 128.9233 0001563 110.5681 249.5479 15.08843672 77546,6917.869,95.437,540.815,538.653,0.0
53716.0,STARLINK-4699,PAYLOAD,2024-01-26 12:08:20,15.08842119,0.0001533,53.2179,124.7591,102.1892,257.9272,0.00018427,2.646e-05,0.0,0 STARLINK-4699,1 53716U 22107S   24026.50578802  .00002646  00000-0  18427-3 0  9996,2 53716  53.2179 124.7591 0001533 102.1892 257.9272 15.08842119 77686,6917.874,95.437,540.799,538.678,0.0
53716.0,STARLINK-4699,PAYLOAD,2024-01-27 11:59:08,15.08826173,0.0001504,53.2175,120.2962,80.8654,279.2508,0.00024043,3.539e-05,0.0,0 STARLINK-4699,1 53716U 22107S   24027.49939847  .00003539  00000-0  24043-3 0  9998,2 53716  53.2175 120.2962 0001504  80.8654 279.2508 15.08826173 77389,6917.923,95.438,540.828,538.747,0.0
53716.0,STARLINK-4699,PAYLOAD,2024-01-27 13:34:30,15.08842799,0.0001436,53.217,119.9982,83.617,276.4986,3.7212e-05,3.04e-06,0.0,0 STARLINK-4699,1 53716U 22107S   24027.56563373  .00000304  00000-0  37212-4 0  9993,2 53716  53.2170 119.9982 0001436  83.6170 276.4986 15.08842799 77841,6917.872,95.437,540.73,538.743,0.0
53716.0,STARLINK-4699,PAYLOAD,2024-01-28 11:49:55,15.08833327,0.0001617,53.2174,115.8367,76.5989,283.5183,1.921e-05,1.8e-07,0.0,0 STARLINK-4699,1 53716U 22107S   24028.49300163  .00000018  00000-0  19210-4 0  9992,2 53716  53.2174 115.8367 0001617  76.5989 283.5183 15.08833327 77538,6917.901,95.438,540.884,538.647,0.0
53716.0,STARLINK-4699,PAYLOAD,2024-01-28 13:25:18,15.0883922,0.0001547,53.2176,115.5388,84.3917,275.7252,-9.0495e-06,-4.32e-06,0.0,0 STARLINK-4699,1 53716U 22107S   24028.55923798 -.00000432  00000-0 -90495-5 0  9991,2 53716  53.2176 115.5388 0001547  84.3917 275.7252 15.08839220 77998,6917.883,95.438,540.818,538.678,0.0
53716.0,STARLINK-4699,PAYLOAD,2024-01-29 11:40:41,15.08851292,0.000141,53.2166,111.3775,83.4807,276.6345,9.8968e-05,1.288e-05,0.0,0 STARLINK-4699,1 53716U 22107S   24029.48658924  .00001288  00000-0  98968-4 0  9990,2 53716  53.2166 111.3775 0001410  83.4807 276.6345 15.08851292 77680,6917.846,95.437,540.686,538.735,0.0
53716.0,STARLINK-4699,PAYLOAD,2024-01-30 11:31:28,15.08839976,0.000141,53.2176,106.9136,108.5237,251.5909,4.6871e-05,4.58e-06,0.0,0 STARLINK-4699,1 53716U 22107S   24030.48019526  .00000458  00000-0  46871-4 0  9995,2 53716  53.2176 106.9136 0001410 108.5237 251.5909 15.08839976 77838,6917.88,95.438,540.721,538.77,0.0
53716.0,STARLINK-4699,PAYLOAD,2024-01-31 14:33:01,15.08847681,0.0001754,53.2174,101.8578,108.7532,251.3651,-2.9953e-06,-3.36e-06,0.0,0 STARLINK-4699,1 53716U 22107S   24031.60627116 -.00000336  00000-0 -29953-5 0  9990,2 53716  53.2174 101.8578 0001754 108.7532 251.3651 15.08847681 78454,6917.857,95.437,540.935,538.509,0.0
53716.0,STARLINK-4699,PAYLOAD,2024-02-01 11:13:03,15.08830296,0.0001605,53.2177,97.9899,100.3105,259.8068,1.6278e-05,-2.9e-07,0.0,0 STARLINK-4699,1 53716U 22107S   24032.46740391 -.00000029  00000-0  16278-4 0  9999,2 53716  53.2177  97.9899 0001605 100.3105 259.8068 15.08830296 78131,6917.91,95.438,540.885,538.665,0.0
53716.0,STARLINK-4699,PAYLOAD,2024-02-01 14:23:50,15.08830193,0.0001617,53.2178,97.3957,100.7899,259.3275,1.4832e-05,-5.2e-07,0.0,0 STARLINK-4699,1 53716U 22107S   24032.59988492 -.00000052  00000-0  14832-4 0  9999,2 53716  53.2178  97.3957 0001617 100.7899 259.3275 15.08830193 78601,6917.91,95.438,540.894,538.657,0.0
53716.0,STARLINK-4699,PAYLOAD,2024-02-02 09:28:26,15.08843438,0.0001619,53.2179,93.8281,104.6933,255.4238,7.2231e-05,8.62e-06,0.0,0 STARLINK-4699,1 53716U 22107S   24033.39475548  .00000862  00000-0  72231-4 0  9996,2 53716  53.2179  93.8281 0001619 104.6933 255.4238 15.08843438 78272,6917.87,95.437,540.855,538.615,0.0
53716.0,STARLINK-4699,PAYLOAD,2024-02-03 02:57:41,15.08835116,0.0001396,53.217,90.5595,95.0148,265.1004,9.7691e-05,1.267e-05,0.0,0 STARLINK-4699,1 53716U 22107S   24034.12340093  .00001267  00000-0  97691-4 0  9991,2 53716  53.2170  90.5595 0001396  95.0148 265.1004 15.08835116 78383,6917.895,95.438,540.726,538.795,0.0
53716.0,STARLINK-4699,PAYLOAD,2024-02-03 12:30:00,15.08839026,0.0001326,53.2169,88.7747,87.1463,272.9681,5.4225e-05,5.75e-06,0.0,0 STARLINK-4699,1 53716U 22107S   24034.52084168  .00000575  00000-0  54225-4 0  9990,2 53716  53.2169  88.7747 0001326  87.1463 272.9681 15.08839026 78891,6917.883,95.438,540.666,538.831,0.0
53716.0,STARLINK-4699,PAYLOAD,2024-02-04 10:45:24,15.08844847,0.0001525,53.2175,84.6107,79.9502,280.1663,8.4737e-05,1.061e-05,0.0,0 STARLINK-4699,1 53716U 22107S   24035.44819787  .00001061  00000-0  84737-4 0  9997,2 53716  53.2175  84.6107 0001525  79.9502 280.1663 15.08844847 78581,6917.866,95.437,540.786,538.676,0.0
53716.0,STARLINK-4699,PAYLOAD,2024-02-05 10:36:11,15.08839763,0.0001482,53.2169,80.1558,72.7656,287.3498,0.00014262,1.983e-05,0.0,0 STARLINK-4699,1 53716U 22107S   24036.44179917  .00001983  00000-0  14262-3 0  9990,2 53716  53.2169  80.1558 0001482  72.7656 287.3498 15.08839763 78731,6917.881,95.438,540.771,538.721,0.0
53716.0,STARLINK-4699,PAYLOAD,2024-02-06 08:51:35,15.08840909,0.0001789,53.2179,75.9905,74.5181,285.6009,-1.8668e-07,-2.91e-06,0.0,0 STARLINK-4699,1 53716U 22107S   24037.36916442 -.00000291  00000-0 -18668-6 0  9994,2 53716  53.2179  75.9905 0001789  74.5181 285.6009 15.08840909 78871,6917.878,95.437,540.98,538.505,0.0
53716.0,STARLINK-4699,PAYLOAD,2024-02-07 11:53:09,15.08840473,0.0001439,53.2165,70.9344,90.0612,270.0545,-2.3394e-05,-6.6e-06,0.0,0 STARLINK-4699,1 53716U 22107S   24038.49524401 -.00000660  00000-0 -23394-4 0  9999,2 53716  53.2165  70.9344 0001439  90.0612 270.0545 15.08840473 79041,6917.879,95.438,540.739,538.748,0.0
53716.0,STARLINK-4699,PAYLOAD,2024-02-08 11:43:55,15.08843971,0.0001508,53.2163,66.4722,95.0693,265.0471,8.5505e-05,1.073e-05,0.0,0 STARLINK-4699,1 53716U 22107S   24039.48884166  .00001073  00000-0  85505-4 0  9995,2 53716  53.2163  66.4722 0001508  95.0693 265.0471 15.08843971 79644,6917.868,95.437,540.776,538.69,0.0
53716.0,STARLINK-4699,PAYLOAD,2024-02-09 02:02:24,15.08838573,0.0001617,53.216,63.7938,98.8135,261.3041,-6.9703e-06,-3.99e-06,0.0,0 STARLINK-4699,1 53716U 22107S   24040.08500905 -.00000399  00000-0 -69703-5 0  9994,2 53716  53.2160  63.7938 0001617  98.8135 261.3041 15.08838573 79287,6917.885,95.438,540.868,538.631,0.0
53716.0,STARLINK-4699,PAYLOAD,2024-02-09 08:23:57,15.08842294,0.0001632,53.2162,62.6048,98.3611,261.7566,3.2633e-05,2.31e-06,0.0,0 STARLINK-4699,1 53716U 22107S   24040.34996593  .00000231  00000-0  32633-4 0  9999,2 53716  53.2162  62.6048 0001632  98.3611 261.7566 15.08842294 79775,6917.873,95.437,540.867,538.609,0.0
53716.0,STARLINK-4699,PAYLOAD,2024-02-10 06:39:21,15.0884018,0.0001734,53.2172,58.4439,107.6967,252.4214,-6.6894e-07,-2.99e-06,0.0,0 STARLINK-4699,1 53716U 22107S   24041.27733147 -.00000299  00000-0 -66894-6 0  9990,2 53716  53.2172  58.4439 0001734 107.6967 252.4214 15.08840180 79469,6917.88,95.438,540.944,538.545,0.0
53716.0,STARLINK-4699,PAYLOAD,2024-02-11 09:40:54,15.08844495,0.0001762,53.218,53.3898,104.2253,255.8935,6.4242e-05,7.35e-06,0.0,0 STARLINK-4699,1 53716U 22107S   24042.40340867  .00000735  00000-0  64242-4 0  9995,2 53716  53.2180  53.3898 0001762 104.2253 255.8935 15.08844495 79632,6917.867,95.437,540.951,538.513,0.0
53716.0,STARLINK-4699,PAYLOAD,2024-02-12 09:31:40,15.08879313,0.0002108,53.2188,48.9288,107.6229,252.4993,-0.00030417,-5.131e-05,0.0,0 STARLINK-4699,1 53716U 22107S   24043.39699343 -.00005131  00000-0 -30417-3 0  9993,2 53716  53.2188  48.9288 0002108 107.6229 252.4993 15.08879313 79788,6917.76,95.435,541.083,538.167,0.0
53716.0,STARLINK-4699,PAYLOAD,2024-02-13 07:47:05,15.08839768,0.0001504,53.2185,44.7643,101.1185,258.9976,-2.1569e-06,-3.22e-06,0.0,0 STARLINK-4699,1 53716U 22107S   24044.32437453 -.00000322  00000-0 -21569-5 0  9996,2 53716  53.2185  44.7643 0001504 101.1185 258.9976 15.08839768 79921,6917.881,95.438,540.787,538.706,0.0
53716.0,STARLINK-4699,PAYLOAD,2024-02-13 17:19:24,15.08840501,0.0001682,53.2198,42.9791,91.9698,268.1487,-9.8224e-06,-4.44e-06,0.0,0 STARLINK-4699,1 53716U 22107S   24044.72181550 -.00000444  00000-0 -98224-5 0  9991,2 53716  53.2198  42.9791 0001682  91.9698 268.1487 15.08840501 80436,6917.879,95.438,540.907,538.58,0.0
53716.0,STARLINK-4699,PAYLOAD,2024-02-14 06:02:29,15.08853925,0.0001351,53.2175,40.6025,103.4487,256.6656,1.632e-05,-2.8e-07,0.0,0 STARLINK-4699,1 53716U 22107S   24045.25172520 -.00000028  00000-0  16320-4 0  9990,2 53716  53.2175  40.6025 0001351 103.4487 256.6656 15.08853925 80067,6917.838,95.437,540.637,538.768,0.0
53716.0,STARLINK-4699,PAYLOAD,2024-02-14 17:10:11,15.08845004,0.0001436,53.2192,38.5192,99.9746,260.1408,1.8266e-05,3e-08,0.0,0 STARLINK-4699,1 53716U 22107S   24045.71540871  .00000003  00000-0  18266-4 0  9992,2 53716  53.2192  38.5192 0001436  99.9746 260.1408 15.08845004 80130,6917.865,95.437,540.723,538.737,0.0
53716.0,STARLINK-4699,PAYLOAD,2024-02-15 04:17:54,15.08834517,0.0001524,53.2178,36.4401,93.3156,266.801,4.8094e-05,4.77e-06,0.0,0 STARLINK-4699,1 53716U 22107S   24046.17909883  .00000477  00000-0  48094-4 0  9992,2 53716  53.2178  36.4401 0001524  93.3156 266.8010 15.08834517 80202,6917.897,95.438,540.816,538.708,0.0
53716.0,STARLINK-4699,PAYLOAD,2024-02-15 09:04:03,15.08836289,0.0001461,53.2181,35.5454,97.6938,262.422,5.4619e-05,5.81e-06,0.0,0 STARLINK-4699,1 53716U 22107S   24046.37781719  .00000581  00000-0  54619-4 0  9996,2 53716  53.2181  35.5454 0001461  97.6938 262.4220 15.08836289 80684,6917.892,95.438,540.767,538.746,0.0
